[{"OBJECT_NAME":"KAZSTSAT","OBJECT_ID":"2018-099AB","EPOCH":"2026-03-09T14:51:18.118944","MEAN_MOTION":14.99620503,"ECCENTRICITY":0.0006528,"INCLINATION":97.4396,"RA_OF_ASC_NODE":105.0128,"ARG_OF_PERICENTER":11.1145,"MEAN_ANOMALY":349.0222,"EPHEMERIS_TYPE":0,"CLASSIFICATION_TYPE":"U","NORAD_CAT_ID":43783,"ELEMENT_SET_NO":999,"REV_AT_EPOCH":39638,"BSTAR":0.00011446,"MEAN_MOTION_DOT":1.354e-5,"MEAN_MOTION_DDOT":0},{"OBJECT_NAME":"STARLINK-32924","OBJECT_ID":"2025-037R","EPOCH":"2026-03-09T22:45:33.798240","MEAN_MOTION":14.98337023,"ECCENTRICITY":0.00028121,"INCLINATION":70.0035,"RA_OF_ASC_NODE":353.6927,"ARG_OF_PERICENTER":257.7361,"MEAN_ANOMALY":102.3483,"EPHEMERIS_TYPE":0,"CLASSIFICATION_TYPE":"U","NORAD_CAT_ID":63092,"ELEMENT_SET_NO":999,"REV_AT_EPOCH":5864,"BSTAR":0.0006750261,"MEAN_MOTION_DOT":7.972e-5,"MEAN_MOTION_DDOT":0}]
